COSMOS 2425 (716)       
1 29670U 06062A   18066.96712572 -.00000011  00000-0  10000-3 0  9995
2 29670  65.3287 295.9605 0022718 349.5565 189.0521  2.13104883 87157
COSMOS 2426 (717)       
1 29671U 06062B   18066.73586314 -.00000013  00000-0  10000-3 0  9996
2 29671  65.3467 296.0629 0016382 160.1749  57.4995  2.13103060 87156
COSMOS 2433 (720)       
1 32275U 07052A   18066.77385576 -.00000013  00000-0  10000-3 0  9991
2 32275  65.6415  56.7650 0005279 278.4774 303.5259  2.13104659 80667
COSMOS 2432 (719)       
1 32276U 07052B   18066.71033255 -.00000014  00000-0  10000-3 0  9991
2 32276  65.6530  56.8426 0013377 326.1901 159.2589  2.13103965 80660
COSMOS 2434 (721)       
1 32393U 07065A   18066.41623907 -.00000013  00000-0  00000+0 0  9995
2 32393  64.9449 294.9999 0004748  88.1399 107.8711  2.13102864 79367
COSMOS 2436 (723)       
1 32395U 07065C   18067.26920946 -.00000008  00000-0  10000-3 0  9993
2 32395  64.9520 295.0220 0016813   4.0958 176.2795  2.13104180 79312
COSMOS 2456 (730)       
1 36111U 09070A   18066.75721762 -.00000003  00000-0  00000-0 0  9990
2 36111  64.1834 174.5670 0004132 320.8404 308.7378  2.13102721 64039
COSMOS 2457 (733)       
1 36112U 09070B   18067.03211017 -.00000006  00000-0  00000-0 0  9993
2 36112  64.1654 174.4711 0006285 159.8097  88.0314  2.13101477 64040
COSMOS 2458 (734)       
1 36113U 09070C   18067.08028726 -.00000006  00000-0  10000-3 0  9996
2 36113  64.1713 174.4796 0001953  33.1956 299.8846  2.13102096 64045
COSMOS 2459 (731)       
1 36400U 10007A   18066.97771205 -.00000013  00000-0  10000-3 0  9999
2 36400  65.5508  55.8313 0028554 347.0240 251.1270  2.13102216 62399
COSMOS 2461 (735)       
1 36401U 10007B   18066.63754126 -.00000016  00000-0  10000-3 0  9999
2 36401  65.5434  55.8183 0005273  42.4460 205.3269  2.13102175 62388
COSMOS 2460 (732)       
1 36402U 10007C   18067.04198333 -.00000013  00000-0  10000-3 0  9995
2 36402  65.5335  55.7742 0002825 299.0581 299.8329  2.13101668 62395
COSMOS 2464 (736)       
1 37139U 10041C   18067.24798054 -.00000008  00000-0  00000+0 0  9998
2 37139  64.5480 294.8264 0025432  13.9705 327.9059  2.13102691 58461
COSMOS 2471 (701K)      
1 37372U 11009A   18066.74802580 -.00000015  00000-0  00000-0 0  9995
2 37372  65.5320  55.7299 0009444 244.1054 271.0713  2.13107654 54664
COSMOS 2474 (742)       
1 37829U 11055A   18066.72645770 -.00000002  00000-0  00000-0 0  9993
2 37829  64.5077 175.2435 0007592 245.0278 219.5631  2.13101849 50032
COSMOS 2476 (744)       
1 37867U 11064A   18066.89127722 -.00000003  00000-0  00000-0 0  9996
2 37867  64.4877 175.3023 0017300 240.7585  36.2852  2.13101924 49385
COSMOS 2477 (745)       
1 37868U 11064B   18067.09394825 -.00000005  00000-0  00000+0 0  9991
2 37868  64.4957 175.3426 0014986 241.6357   9.8651  2.13101692 49347
COSMOS 2475 (743)       
1 37869U 11064C   18066.93395929 -.00000004  00000-0  00000-0 0  9990
2 37869  64.5032 175.3419 0019383 268.8599 176.5356  2.13101849 49359
COSMOS 2485 (747)       
1 39155U 13019A   18066.82708428 -.00000003  00000-0  00000-0 0  9991
2 39155  64.6570 175.3914 0017697 235.2356  37.4922  2.13101896 37850
COSMOS 2492 (754)       
1 39620U 14012A   18066.77253801 -.00000015  00000-0  10000-3 0  9993
2 39620  65.4223  55.6828 0016908 324.3462 301.1621  2.13103416 30802
COSMOS 2500 (755)       
1 40001U 14032A   18067.38327429 -.00000011  00000-0  00000+0 0  9997
2 40001  65.3631  55.6390 0006684 231.9727   4.5406  2.13102756 29034
COSMOS 2501 (702K)      
1 40315U 14075A   18066.29769726 -.00000017  00000-0  00000-0 0  9998
2 40315  64.2751 296.1109 0014114 207.7506  78.7441  2.13098504 25411
COSMOS 2514 (751)       
1 41330U 16008A   18066.70211441 -.00000016  00000-0  00000-0 0  9995
2 41330  65.1652  55.7412 0010224 232.4408  22.1771  2.13103298 16189
COSMOS 2516 (753)       
1 41554U 16032A   18066.17611802 -.00000017  00000-0  00000-0 0  9997
2 41554  64.4951 295.9503 0010063 221.0415 241.4937  2.13101617 13789
COSMOS 2522 (752)       
1 42939U 17055A   18066.41825644 -.00000016  00000-0  00000-0 0  9998
2 42939  64.7235 295.8793 0005820 259.5737 255.1332  2.13101934  3549
